{"type": "FeatureCollection", "features": [ {"type": "Feature", "properties": {"norad_id": 66052, "name": "HRC MONOBLOCK CAMERA", "group": "stations", "lat": 4.524483814994106, "lon": 71.76477124366636, "alt_km": 402.1771655736529, "timestamp": "2025-12-27T10:28:57.550165+00:00", "meta": {"OBJECT_NAME": "HRC MONOBLOCK CAMERA", "OBJECT_ID": "1998-067XR", "EPOCH": "2025-12-27T04:17:20.433408", "MEAN_MOTION": 15.55149311, "ECCENTRICITY": 0.0001868, "INCLINATION": 51.6303, "RA_OF_ASC_NODE": 69.4595, "ARG_OF_PERICENTER": 257.1988, "MEAN_ANOMALY": 102.8794, "EPHEMERIS_TYPE": 0, "CLASSIFICATION_TYPE": "U", "NORAD_CAT_ID": 66052, "ELEMENT_SET_NO": 999, "REV_AT_EPOCH": 1108, "BSTAR": 0.00056068, "MEAN_MOTION_DOT": 0.0003823, "MEAN_MOTION_DDOT": 0}, "tle": {"line1": "1 66052U 98067XR  25361.17870872  .00038230  00000+0  56068-3 0  9999", "line2": "2 66052  51.6303  69.4595 0001868 257.1988 102.8794 15.55149311 11086"}}, "geometry": {"type": "Point", "coordinates": [71.76477124366636, 4.524483814994106]}}, {"type": "Feature", "properties": {"norad_id": 66174, "name": "HTV-X1", "group": "stations", "lat": -2.9312475866424497, "lon": 67.36313989866255, "alt_km": 416.7190653238913, "timestamp": "2025-12-27T10:28:57.550175+00:00", "meta": {"OBJECT_NAME": "HTV-X1", "OBJECT_ID": "2025-241A", "EPOCH": "2025-12-26T20:34:16.428576", "MEAN_MOTION": 15.49855582, "ECCENTRICITY": 0.00032301, "INCLINATION": 51.6319, "RA_OF_ASC_NODE": 72.5609, "ARG_OF_PERICENTER": 307.0606, "MEAN_ANOMALY": 53.0087, "EPHEMERIS_TYPE": 0, "CLASSIFICATION_TYPE": "U", "NORAD_CAT_ID": 66174, "ELEMENT_SET_NO": 999, "REV_AT_EPOCH": 51, "BSTAR": 0.00027091986, "MEAN_MOTION_DOT": 0.00014958, "MEAN_MOTION_DDOT": 0}, "tle": {"line1": "1 66174U 25241A   25360.85713459  .00014958  00000+0  27092-3 0  9995", "line2": "2 66174  51.6319  72.5609 0003230 307.0606  53.0087 15.49855582   511"}}, "geometry": {"type": "Point", "coordinates": [67.36313989866255, -2.9312475866424497]}}, {"type": "Feature", "properties": {"norad_id": 66515, "name": "SZ-21 MODULE", "group": "stations", "lat": 29.240171116928895, "lon": -34.33393350667421, "alt_km": 372.27016449630264, "timestamp": "2025-12-27T10:28:57.550188+00:00", "meta": {"OBJECT_NAME": "SZ-21 MODULE", "OBJECT_ID": "2025-246C", "EPOCH": "2025-12-27T04:08:50.820288", "MEAN_MOTION": 15.63263847, "ECCENTRICITY": 0.0004159, "INCLINATION": 41.4764, "RA_OF_ASC_NODE": 287.9534, "ARG_OF_PERICENTER": 338.5057, "MEAN_ANOMALY": 21.5607, "EPHEMERIS_TYPE": 0, "CLASSIFICATION_TYPE": "U", "NORAD_CAT_ID": 66515, "ELEMENT_SET_NO": 999, "REV_AT_EPOCH": 670, "BSTAR": 0.00034324, "MEAN_MOTION_DOT": 0.00032194, "MEAN_MOTION_DDOT": 0}, "tle": {"line1": "1 66515U 25246C   25361.17281042  .00032194  00000+0  34324-3 0  9991", "line2": "2 66515  41.4764 287.9534 0004159 338.5057  21.5607 15.63263847  6708"}}, "geometry": {"type": "Point", "coordinates": [-34.33393350667421, 29.240171116928895]}}, {"type": "Feature", "properties": {"norad_id": 66645, "name": "SHENZHOU-22", "group": "stations", "lat": -25.497829447752427, "lon": -105.24703153051323, "alt_km": 396.1582922968373, "timestamp": "2025-12-27T10:28:57.550200+00:00", "meta": {"OBJECT_NAME": "SHENZHOU-22", "OBJECT_ID": "2025-272A", "EPOCH": "2025-12-26T22:21:45.161280", "MEAN_MOTION": 15.59735336, "ECCENTRICITY": 0.00087329, "INCLINATION": 41.4675, "RA_OF_ASC_NODE": 290.5114, "ARG_OF_PERICENTER": 154.941, "MEAN_ANOMALY": 205.1854, "EPHEMERIS_TYPE": 0, "CLASSIFICATION_TYPE": "U", "NORAD_CAT_ID": 66645, "ELEMENT_SET_NO": 999, "REV_AT_EPOCH": 26598, "BSTAR": 0.00023104085, "MEAN_MOTION_DOT": 0.00018761, "MEAN_MOTION_DDOT": 0}, "tle": {"line1": "1 66645U 25272A   25360.93177270  .00018761  00000+0  23104-3 0  9992", "line2": "2 66645  41.4675 290.5114 0008732 154.9410 205.1854 15.59735336265984"}}, "geometry": {"type": "Point", "coordinates": [-105.24703153051323, -25.497829447752427]}}, {"type": "Feature", "properties": {"norad_id": 66664, "name": "SOYUZ-MS 28", "group": "stations", "lat": -2.9312020165089865, "lon": 67.36317607448147, "alt_km": 416.71906127842885, "timestamp": "2025-12-27T10:28:57.550211+00:00", "meta": {"OBJECT_NAME": "SOYUZ-MS 28", "OBJECT_ID": "2025-275A", "EPOCH": "2025-12-26T20:34:16.427712", "MEAN_MOTION": 15.49855582, "ECCENTRICITY": 0.000323, "INCLINATION": 51.6319, "RA_OF_ASC_NODE": 72.5609, "ARG_OF_PERICENTER": 307.0606, "MEAN_ANOMALY": 53.0087, "EPHEMERIS_TYPE": 0, "CLASSIFICATION_TYPE": "U", "NORAD_CAT_ID": 66664, "ELEMENT_SET_NO": 999, "REV_AT_EPOCH": 463, "BSTAR": 0.00027092, "MEAN_MOTION_DOT": 0.00014958, "MEAN_MOTION_DDOT": 0}, "tle": {"line1": "1 66664U 25275A   25360.85713458  .00014958  00000+0  27092-3 0  9995", "line2": "2 66664  51.6319  72.5609 0003230 307.0606  53.0087 15.49855582  4632"}}, "geometry": {"type": "Point", "coordinates": [67.36317607448147, -2.9312020165089865]}}, {"type": "Feature", "properties": {"norad_id": 66906, "name": "1998-067XS", "group": "stations", "lat": 51.50871514309881, "lon": 164.4136053724211, "alt_km": 407.43139876160785, "timestamp": "2025-12-27T10:28:57.550221+00:00", "meta": {"OBJECT_NAME": "1998-067XS", "OBJECT_ID": "1998-067XS", "EPOCH": "2025-12-26T15:31:52.021632", "MEAN_MOTION": 15.5132596, "ECCENTRICITY": 0.00026732, "INCLINATION": 51.6319, "RA_OF_ASC_NODE": 73.4106, "ARG_OF_PERICENTER": 274.6449, "MEAN_ANOMALY": 85.4236, "EPHEMERIS_TYPE": 0, "CLASSIFICATION_TYPE": "U", "NORAD_CAT_ID": 66906, "ELEMENT_SET_NO": 999, "REV_AT_EPOCH": 377, "BSTAR": 0.00048784884, "MEAN_MOTION_DOT": 0.0002883, "MEAN_MOTION_DDOT": 0}, "tle": {"line1": "1 66906U 98067XS  25360.64712988  .00028830  00000+0  48785-3 0  9993", "line2": "2 66906  51.6319  73.4106 0002673 274.6449  85.4236 15.51325960  3771"}}, "geometry": {"type": "Point", "coordinates": [164.4136053724211, 51.50871514309881]}}, {"type": "Feature", "properties": {"norad_id": 66907, "name": "1998-067XT", "group": "stations", "lat": -1.5265652163787466, "lon": -109.48739737242796, "alt_km": 409.79475408822145, "timestamp": "2025-12-27T10:28:57.550231+00:00", "meta": {"OBJECT_NAME": "1998-067XT", "OBJECT_ID": "1998-067XT", "EPOCH": "2025-12-26T12:05:04.890048", "MEAN_MOTION": 15.53165234, "ECCENTRICITY": 0.0003816, "INCLINATION": 51.6314, "RA_OF_ASC_NODE": 73.9516, "ARG_OF_PERICENTER": 309.8325, "MEAN_ANOMALY": 50.2329, "EPHEMERIS_TYPE": 0, "CLASSIFICATION_TYPE": "U", "NORAD_CAT_ID": 66907, "ELEMENT_SET_NO": 999, "REV_AT_EPOCH": 375, "BSTAR": 0.00096732, "MEAN_MOTION_DOT": 0.00061851, "MEAN_MOTION_DDOT": 0}, "tle": {"line1": "1 66907U 98067XT  25360.50352882  .00061851  00000+0  96732-3 0  9997", "line2": "2 66907  51.6314  73.9516 0003816 309.8325  50.2329 15.53165234  3750"}}, "geometry": {"type": "Point", "coordinates": [-109.48739737242796, -1.5265652163787466]}}, {"type": "Feature", "properties": {"norad_id": 66908, "name": "1998-067XU", "group": "stations", "lat": -6.689959580564008, "lon": -105.3793793296582, "alt_km": 409.99201545374035, "timestamp": "2025-12-27T10:28:57.550241+00:00", "meta": {"OBJECT_NAME": "1998-067XU", "OBJECT_ID": "1998-067XU", "EPOCH": "2025-12-26T18:14:01.549824", "MEAN_MOTION": 15.53257933, "ECCENTRICITY": 0.00038698, "INCLINATION": 51.6313, "RA_OF_ASC_NODE": 72.6614, "ARG_OF_PERICENTER": 309.5614, "MEAN_ANOMALY": 50.5034, "EPHEMERIS_TYPE": 0, "CLASSIFICATION_TYPE": "U", "NORAD_CAT_ID": 66908, "ELEMENT_SET_NO": 999, "REV_AT_EPOCH": 379, "BSTAR": 0.00095802228, "MEAN_MOTION_DOT": 0.00061456, "MEAN_MOTION_DDOT": 0}, "tle": {"line1": "1 66908U 98067XU  25360.75974016  .00061456  00000+0  95802-3 0  9992", "line2": "2 66908  51.6313  72.6614 0003869 309.5614  50.5034 15.53257933  3799"}}, "geometry": {"type": "Point", "coordinates": [-105.3793793296582, -6.689959580564008]}}, {"type": "Feature", "properties": {"norad_id": 66909, "name": "SILVERSAT", "group": "stations", "lat": -15.431769706855636, "lon": -98.10196017705304, "alt_km": 409.7550580531997, "timestamp": "2025-12-27T10:28:57.550251+00:00", "meta": {"OBJECT_NAME": "SILVERSAT", "OBJECT_ID": "1998-067XV", "EPOCH": "2025-12-26T12:00:46.911744", "MEAN_MOTION": 15.53512588, "ECCENTRICITY": 0.0003773, "INCLINATION": 51.6312, "RA_OF_ASC_NODE": 73.9315, "ARG_OF_PERICENTER": 313.4073, "MEAN_ANOMALY": 46.6603, "EPHEMERIS_TYPE": 0, "CLASSIFICATION_TYPE": "U", "NORAD_CAT_ID": 66909, "ELEMENT_SET_NO": 999, "REV_AT_EPOCH": 375, "BSTAR": 0.0010737, "MEAN_MOTION_DOT": 0.00069652, "MEAN_MOTION_DDOT": 0}, "tle": {"line1": "1 66909U 98067XV  25360.50054296  .00069652  00000+0  10737-2 0  9994", "line2": "2 66909  51.6312  73.9315 0003773 313.4073  46.6603 15.53512588  3752"}}, "geometry": {"type": "Point", "coordinates": [-98.10196017705304, -15.431769706855636]}}, {"type": "Feature", "properties": {"norad_id": 66910, "name": "1998-067XW", "group": "stations", "lat": -21.848409127822105, "lon": -92.23140267143101, "alt_km": 408.95851325694093, "timestamp": "2025-12-27T10:28:57.550261+00:00", "meta": {"OBJECT_NAME": "1998-067XW", "OBJECT_ID": "1998-067XW", "EPOCH": "2025-12-26T15:03:47.074752", "MEAN_MOTION": 15.53436341, "ECCENTRICITY": 0.0003732, "INCLINATION": 51.6301, "RA_OF_ASC_NODE": 73.2786, "ARG_OF_PERICENTER": 284.7259, "MEAN_ANOMALY": 75.3317, "EPHEMERIS_TYPE": 0, "CLASSIFICATION_TYPE": "U", "NORAD_CAT_ID": 66910, "ELEMENT_SET_NO": 999, "REV_AT_EPOCH": 377, "BSTAR": 0.0011547, "MEAN_MOTION_DOT": 0.00074776, "MEAN_MOTION_DDOT": 0}, "tle": {"line1": "1 66910U 98067XW  25360.62762818  .00074776  00000+0  11547-2 0  9998", "line2": "2 66910  51.6301  73.2786 0003732 284.7259  75.3317 15.53436341  3773"}}, "geometry": {"type": "Point", "coordinates": [-92.23140267143101, -21.848409127822105]}}]}